IRIDIUM 64 [+]          
1 25287U 98021C   17276.29775900  .00000193  00000-0  61752-4 0  9994
2 25287  86.4017 178.7880 0001982  84.1737 275.9685 14.34222838 20495
IRIDIUM 65 [+]          
1 25288U 98021D   17276.30410828  .00000198  00000-0  63807-4 0  9990
2 25288  86.4016 178.6869 0002136  76.9603 283.1831 14.34222225 20511
IRIDIUM 66 [+]          
1 25289U 98021E   17276.31044590  .00000204  00000-0  65609-4 0  9991
2 25289  86.4015 178.5867 0002198  80.0800 280.0643 14.34222814 20501
IRIDIUM 67 [+]          
1 25290U 98021F   17276.31678804  .00000015  00000-0 -17415-5 0  9998
2 25290  86.4017 178.7219 0002191  80.2264 279.9180 14.34222506 20520
IRIDIUM 68 [+]          
1 25291U 98021G   17276.32313151  .00000194  00000-0  62374-4 0  9991
2 25291  86.4017 178.8399 0002089  81.2363 278.9069 14.34222678 20501
IRIDIUM 69 [-]          
1 25319U 98026A   17276.40442110  .00000105  00000-0  27821-4 0  9994
2 25319  86.4047 200.1987 0000640  32.2001 327.9236 14.38694344 18597
IRIDIUM 71 [-]          
1 25320U 98026B   17276.36364123  .00000114  00000-0  30512-4 0  9999
2 25320  86.4033 196.0585 0002887  38.3589 321.7814 14.39106722 19026
IRIDIUM 70 [+]          
1 25342U 98032A   17276.37488590  .00000190  00000-0  60634-4 0  9998
2 25342  86.4023 179.0653 0002231  78.6061  57.5192 14.34220143 14602
IRIDIUM 72 [+]          
1 25343U 98032B   17276.33581050  .00000200  00000-0  64303-4 0  9999
2 25343  86.4017 178.6866 0002158  80.2586 279.8854 14.34222986 14607
IRIDIUM 73 [-]          
1 25344U 98032C   17276.28316939  .00000159  00000-0  36462-4 0  9994
2 25344  86.4459 157.3050 0002748  80.4939 279.6576 14.49063427 23200
IRIDIUM 75 [+]          
1 25346U 98032E   17276.34215020  .00000192  00000-0  61432-4 0  9994
2 25346  86.4021 178.9399 0002150  80.8854 279.2585 14.34222469 15179
IRIDIUM 3 [+]           
1 25431U 98048A   17276.42320132  .00000169  00000-0  53157-4 0  9995
2 25431  86.4007 210.4579 0002287  78.0638  60.6333 14.34217829  1138
IRIDIUM 76 [+]          
1 25432U 98048B   17276.41537622  .00000170  00000-0  53752-4 0  9992
2 25432  86.4005 210.2120 0002458  83.6790 276.4686 14.34221720  1108
IRIDIUM 82 [-]          
1 25467U 98051A   17276.24537031  .00001323  00000-0  98438-4 0  9990
2 25467  86.4020 331.2368 0182838   6.8168 353.5479 14.89482566  2923
IRIDIUM 81 [+]          
1 25468U 98051B   17276.26449193  .00000179  00000-0  52061-4 0  9994
2 25468  86.4254 336.6426 0002490  98.7648 261.3832 14.38605169998388
IRIDIUM 80 [+]          
1 25469U 98051C   17276.31868639  .00000176  00000-0  55683-4 0  9991
2 25469  86.3986 336.8993 0001526  93.9948 318.0572 14.34221982998339
IRIDIUM 2 [-]           
1 25527U 98066A   17276.45985085  .00001355  00000-0  66892-4 0  9996
2 25527  85.5311 328.3382 0011136  61.2215 299.0142 15.16837791 34286
IRIDIUM 86 [+]          
1 25528U 98066B   17276.46362665  .00000006  00000-0 -50037-5 0  9999
2 25528  86.3923 304.5265 0002197  84.2140 275.9306 14.34219242994880
IRIDIUM 84 [+]          
1 25530U 98066D   17276.42556737  .00000021  00000-0  34552-6 0  9994
2 25530  86.3924 304.7090 0002222  89.8925 270.2525 14.34219618992519
IRIDIUM 83 [+]          
1 25531U 98066E   17276.45728206  .00000017  00000-0 -11342-5 0  9997
2 25531  86.3928 304.8256 0002164  90.8263 269.3181 14.34219527989872
IRIDIUM 20 [+]          
1 25577U 98074A   17276.37731646  .00000170  00000-0  53620-4 0  9992
2 25577  86.4004 210.1478 0002213  81.1535 278.9911 14.34217908983943
IRIDIUM 11 [+]          
1 25578U 98074B   17276.41689943  .00000168  00000-0  52956-4 0  9998
2 25578  86.4003 210.3319 0002110  80.6107  58.3471 14.34220704992910
IRIDIUM 14 [+]          
1 25777U 99032A   17276.29141581  .00000190  00000-0  60874-4 0  9994
2 25777  86.4019 178.7907 0002206  77.4924 282.6519 14.34221690970179
IRIDIUM 21 [+]          
1 25778U 99032B   17276.32947321  .00000195  00000-0  62640-4 0  9993
2 25778  86.4017 178.7920 0002224  84.6318 275.5131 14.34222850963611
IRIDIUM 91 [+]          
1 27372U 02005A   17276.46120572  .00000012  00000-0 -27676-5 0  9995
2 27372  86.3956 241.8834 0002748  82.5551  38.7621 14.34218401827144
IRIDIUM 90 [S]          
1 27373U 02005B   17276.51010701  .00000047  00000-0  80440-5 0  9999
2 27373  86.4439 304.7925 0002381  89.5273 270.6200 14.42950198826978
IRIDIUM 94 [+]          
1 27374U 02005C   17276.43575564  .00000184  00000-0  58517-4 0  9995
2 27374  86.4004 210.4566 0002912  78.6456  59.4021 14.34218038831468
IRIDIUM 95 [+]          
1 27375U 02005D   17276.40601593  .00000021  00000-0  53369-6 0  9997
2 27375  86.3952 241.9258 0003144  91.3997 268.7559 14.34217866826426
IRIDIUM 96 [+]          
1 27376U 02005E   17276.45380539  .00000002  00000-0 -62119-5 0  9999
2 27376  86.3944 273.9741 0002945 105.6780 254.4741 14.34218283831635
IRIDIUM 97 [+]          
1 27450U 02031A   17276.49185357  .00000001  00000-0 -66428-5 0  9992
2 27450  86.3913 273.5959 0001973  89.0515 271.0907 14.34218725805756
IRIDIUM 98 [+]          
1 27451U 02031B   17276.31497005  .00000154  00000-0  48020-4 0  9995
2 27451  86.3979 336.9910 0002082  82.0655 278.0777 14.34221252806808
